{
  "type": "FeatureCollection",
  "name": "Jaringan_Pipa_PDAM_Lombok_Tengah",
  "crs": {
    "type": "name",
    "properties": {
      "name": "urn:ogc:def:crs:OGC:1.3:CRS84"
    }
  },
  "features": [
    {
      "type": "Feature",
      "properties": {
        "id": "PIPE-001",
        "kode_pipa": "TR-BJ-01",
        "nama_jalur": "Pipa Transmisi Utama Batujai - Praya Barat",
        "kategori": "Transmisi",
        "material": "HDPE PN-16",
        "diameter_mm": 250,
        "panjang_m": 1850,
        "tekanan_bar": 4.2,
        "status": "Aktif",
        "tahun_pasang": 2019,
        "zona_dma": "DMA-01 Penujak",
        "sumber_air": "WTP Bendungan Batujai"
      },
      "geometry": {
        "type": "LineString",
        "coordinates": [
          [116.2750, -8.7200],
          [116.2680, -8.7320],
          [116.2550, -8.7450],
          [116.2400, -8.7600],
          [116.2250, -8.7750],
          [116.2100, -8.7880]
        ]
      }
    },
    {
      "type": "Feature",
      "properties": {
        "id": "PIPE-002",
        "kode_pipa": "DIS-PB-01",
        "nama_jalur": "Distribusi Primer Jl. Raya Praya - Penujak",
        "kategori": "Distribusi Primer",
        "material": "PVC RRJ",
        "diameter_mm": 160,
        "panjang_m": 1420,
        "tekanan_bar": 3.1,
        "status": "Aktif",
        "tahun_pasang": 2021,
        "zona_dma": "DMA-01 Penujak",
        "sumber_air": "Reservoir Penujak"
      },
      "geometry": {
        "type": "LineString",
        "coordinates": [
          [116.2100, -8.7880],
          [116.2050, -8.7890],
          [116.2000, -8.7905],
          [116.1950, -8.7915],
          [116.1900, -8.7925]
        ]
      }
    },
    {
      "type": "Feature",
      "properties": {
        "id": "PIPE-003",
        "kode_pipa": "RET-PB-11",
        "nama_jalur": "Pipa Retikulasi Pemukiman Karang Dalam",
        "kategori": "Retikulasi",
        "material": "HDPE PN-10",
        "diameter_mm": 90,
        "panjang_m": 820,
        "tekanan_bar": 2.5,
        "status": "Aktif",
        "tahun_pasang": 2022,
        "zona_dma": "DMA-01 Penujak",
        "sumber_air": "Boster Karang Dalam"
      },
      "geometry": {
        "type": "LineString",
        "coordinates": [
          [116.2050, -8.7890],
          [116.2065, -8.7940],
          [116.2080, -8.7980],
          [116.2095, -8.8020]
        ]
      }
    },
    {
      "type": "Feature",
      "properties": {
        "id": "PIPE-004",
        "kode_pipa": "RET-PB-12",
        "nama_jalur": "Pipa Retikulasi Blok Barat Penujak",
        "kategori": "Retikulasi",
        "material": "PVC SNI",
        "diameter_mm": 75,
        "panjang_m": 650,
        "tekanan_bar": 2.1,
        "status": "Aktif",
        "tahun_pasang": 2020,
        "zona_dma": "DMA-01 Penujak",
        "sumber_air": "Boster Karang Dalam"
      },
      "geometry": {
        "type": "LineString",
        "coordinates": [
          [116.2000, -8.7905],
          [116.2010, -8.7950],
          [116.2025, -8.8000],
          [116.2035, -8.8040]
        ]
      }
    },
    {
      "type": "Feature",
      "properties": {
        "id": "PIPE-005",
        "kode_pipa": "DIS-KT-02",
        "nama_jalur": "Pipa Distribusi Jalur Bandara Internasional Lombok (BIL)",
        "kategori": "Distribusi Primer",
        "material": "Ductile Iron (DIP)",
        "diameter_mm": 200,
        "panjang_m": 2600,
        "tekanan_bar": 3.8,
        "status": "Aktif",
        "tahun_pasang": 2018,
        "zona_dma": "DMA-02 Bandara",
        "sumber_air": "WTP Batujai"
      },
      "geometry": {
        "type": "LineString",
        "coordinates": [
          [116.2400, -8.7600],
          [116.2480, -8.7650],
          [116.2550, -8.7720],
          [116.2650, -8.7800],
          [116.2750, -8.7900]
        ]
      }
    },
    {
      "type": "Feature",
      "properties": {
        "id": "VALVE-01",
        "kode_aksesoris": "GV-PB-01",
        "nama_aksesoris": "Gate Valve Isolasi Penujak Barat",
        "kategori": "Katup (Gate Valve)",
        "tipe": "Gate Valve 150mm",
        "status": "Buka Penuh (100%)",
        "tekanan_bar": 3.0,
        "kondisi": "Baik",
        "jadwal_cek": "Bulanan"
      },
      "geometry": {
        "type": "Point",
        "coordinates": [116.2100, -8.7880]
      }
    },
    {
      "type": "Feature",
      "properties": {
        "id": "VALVE-02",
        "kode_aksesoris": "PRV-BJ-01",
        "nama_aksesoris": "PRV Penurun Tekanan Zona Pemukiman",
        "kategori": "Katup Pengurang Tekanan (PRV)",
        "tipe": "Automatic Control Valve",
        "status": "Aktif Mengatur Tekanan",
        "tekanan_in": "4.2 Bar",
        "tekanan_out": "2.5 Bar",
        "kondisi": "Baik"
      },
      "geometry": {
        "type": "Point",
        "coordinates": [116.2400, -8.7600]
      }
    }
  ]
}
